start=new Date('2021-11-23T00:00:00.000Z').valueOf();
sats=[{"EPOCH":"2021-11-22T13:44:46.390560","INCLINATION":"53.0565","APOAPSIS":"548.001","MEAN_MOTION_DDOT":"0.0000000000000","MEAN_MOTION":"15.06392385","TLE_LINE2":"2 45784  53.0565  36.1785 0001104  72.5284 287.5825 15.06392385 80409","DECAY_DATE":null,"LAUNCH_DATE":"2020-06-13","BSTAR":"0.00010201000000","ECCENTRICITY":"0.00011040","REF_FRAME":"TEME","MEAN_ANOMALY":"287.5825","GP_ID":"190262647","MEAN_MOTION_DOT":"0.00001238","COUNTRY_CODE":"US","EPHEMERIS_TYPE":"0","OBJECT_ID":"2020-038BG","TIME_SYSTEM":"UTC","CENTER_NAME":"EARTH","PERIOD":"95.593","TLE_LINE1":"1 45784U 20038BG  21326.57275915  .00001238  00000-0  10201-3 0  9997","REV_AT_EPOCH":"8040","OBJECT_TYPE":"PAYLOAD","FILE":"3221278","ARG_OF_PERICENTER":"72.5284","OBJECT_NAME":"STARLINK-1510","RCS_SIZE":"LARGE","SEMIMAJOR_AXIS":"6925.372","RA_OF_ASC_NODE":"36.1785","CLASSIFICATION_TYPE":"U","NORAD_CAT_ID":"45784","SITE":"AFETR","ELEMENT_SET_NO":"999","PERIAPSIS":"546.472","MEAN_ELEMENT_THEORY":"SGP4"},{"DECAY_DATE":null,"LAUNCH_DATE":"2020-06-13","BSTAR":"0.00002112400000","TLE_LINE2":"2 45785  53.0551  35.9581 0001267  71.1640 288.9487 15.06397239 81332","INCLINATION":"53.0551","EPOCH":"2021-11-22T14:53:46.187808","MEAN_MOTION":"15.06397239","APOAPSIS":"548.099","MEAN_MOTION_DDOT":"0.0000000000000","OBJECT_ID":"2020-038BH","COUNTRY_CODE":"US","EPHEMERIS_TYPE":"0","CENTER_NAME":"EARTH","TIME_SYSTEM":"UTC","ECCENTRICITY":"0.00012670","GP_ID":"190268905","MEAN_MOTION_DOT":"0.00000033","MEAN_ANOMALY":"288.9487","REF_FRAME":"TEME","RCS_SIZE":"LARGE","OBJECT_NAME":"STARLINK-1512","ARG_OF_PERICENTER":"71.1640","TLE_LINE1":"1 45785U 20038BH  21326.62067347  .00000033  00000-0  21124-4 0  9991","REV_AT_EPOCH":"8133","PERIOD":"95.592","FILE":"3221432","OBJECT_TYPE":"PAYLOAD","NORAD_CAT_ID":"45785","CLASSIFICATION_TYPE":"U","PERIAPSIS":"546.345","ELEMENT_SET_NO":"999","MEAN_ELEMENT_THEORY":"SGP4","SITE":"AFETR","SEMIMAJOR_AXIS":"6925.357","RA_OF_ASC_NODE":"35.9581"},{"RCS_SIZE":"LARGE","ARG_OF_PERICENTER":"79.6569","OBJECT_NAME":"STARLINK-1513","REV_AT_EPOCH":"8039","TLE_LINE1":"1 45786U 20038BJ  21326.47322845  .00001845  00000-0  14269-3 0  9995","PERIOD":"95.592","FILE":"3221278","OBJECT_TYPE":"PAYLOAD","NORAD_CAT_ID":"45786","CLASSIFICATION_TYPE":"U","PERIAPSIS":"546.305","ELEMENT_SET_NO":"999","MEAN_ELEMENT_THEORY":"SGP4","SITE":"AFETR","SEMIMAJOR_AXIS":"6925.325","RA_OF_ASC_NODE":"36.6144","DECAY_DATE":null,"LAUNCH_DATE":"2020-06-13","BSTAR":"0.00014269000000","TLE_LINE2":"2 45786  53.0549  36.6144 0001277  79.6569 280.4563 15.06407777 80393","INCLINATION":"53.0549","EPOCH":"2021-11-22T11:21:26.938080","MEAN_MOTION":"15.06407777","APOAPSIS":"548.074","MEAN_MOTION_DDOT":"0.0000000000000","OBJECT_ID":"2020-038BJ","COUNTRY_CODE":"US","EPHEMERIS_TYPE":"0","CENTER_NAME":"EARTH","TIME_SYSTEM":"UTC","ECCENTRICITY":"0.00012770","MEAN_MOTION_DOT":"0.00001845","GP_ID":"190262146","MEAN_ANOMALY":"280.4563","REF_FRAME":"TEME"},{"ELEMENT_SET_NO":"999","PERIAPSIS":"546.387","MEAN_ELEMENT_THEORY":"SGP4","SITE":"AFETR","NORAD_CAT_ID":"45787","CLASSIFICATION_TYPE":"U","SEMIMAJOR_AXIS":"6925.344","RA_OF_ASC_NODE":"35.9906","RCS_SIZE":"LARGE","OBJECT_NAME":"STARLINK-1517","ARG_OF_PERICENTER":"73.0592","FILE":"3221432","OBJECT_TYPE":"PAYLOAD","TLE_LINE1":"1 45787U 20038BK  21326.61330117  .00000791  00000-0  71960-4 0  9994","REV_AT_EPOCH":"8133","PERIOD":"95.592","CENTER_NAME":"EARTH","TIME_SYSTEM":"UTC","OBJECT_ID":"2020-038BK","COUNTRY_CODE":"US","EPHEMERIS_TYPE":"0","GP_ID":"190269412","MEAN_MOTION_DOT":"0.00000791","MEAN_ANOMALY":"287.0527","REF_FRAME":"TEME","ECCENTRICITY":"0.00011870","DECAY_DATE":null,"BSTAR":"0.00007196000000","LAUNCH_DATE":"2020-06-13","TLE_LINE2":"2 45787  53.0555  35.9906 0001187  73.0592 287.0527 15.06401339 81339","MEAN_MOTION":"15.06401339","APOAPSIS":"548.031","MEAN_MOTION_DDOT":"0.0000000000000","INCLINATION":"53.0555","EPOCH":"2021-11-22T14:43:09.221088"},{"FILE":"3221278","OBJECT_TYPE":"PAYLOAD","TLE_LINE1":"1 46027U 20055A   21326.38753334  .00000007  00000-0  19354-4 0  9994","REV_AT_EPOCH":"7250","PERIOD":"95.592","RCS_SIZE":"LARGE","OBJECT_NAME":"STARLINK-1522","ARG_OF_PERICENTER":"63.8618","RA_OF_ASC_NODE":"327.0101","SEMIMAJOR_AXIS":"6925.348","PERIAPSIS":"546.034","ELEMENT_SET_NO":"999","MEAN_ELEMENT_THEORY":"SGP4","SITE":"AFETR","NORAD_CAT_ID":"46027","CLASSIFICATION_TYPE":"U","MEAN_MOTION":"15.06400120","APOAPSIS":"548.393","MEAN_MOTION_DDOT":"0.0000000000000","INCLINATION":"53.0534","EPOCH":"2021-11-22T09:18:02.880576","DECAY_DATE":null,"BSTAR":"0.00001935400000","LAUNCH_DATE":"2020-08-07","TLE_LINE2":"2 46027  53.0534 327.0101 0001703  63.8618 296.2546 15.06400120 72505","GP_ID":"190261921","MEAN_MOTION_DOT":"0.00000007","MEAN_ANOMALY":"296.2546","REF_FRAME":"TEME","ECCENTRICITY":"0.00017030","CENTER_NAME":"EARTH","TIME_SYSTEM":"UTC","OBJECT_ID":"2020-055A","COUNTRY_CODE":"US","EPHEMERIS_TYPE":"0"},{"COUNTRY_CODE":"US","EPHEMERIS_TYPE":"0","OBJECT_ID":"2020-055B","TIME_SYSTEM":"UTC","CENTER_NAME":"EARTH","ECCENTRICITY":"0.00015450","MEAN_ANOMALY":"301.6462","REF_FRAME":"TEME","GP_ID":"190263173","MEAN_MOTION_DOT":"0.00000864","TLE_LINE2":"2 46028  53.0541 327.5316 0001545  58.4678 301.6462 15.06394386 72501","DECAY_DATE":null,"BSTAR":"0.00007689500000","LAUNCH_DATE":"2020-08-07","EPOCH":"2021-11-22T06:28:12.217440","INCLINATION":"53.0541","APOAPSIS":"548.301","MEAN_MOTION_DDOT":"0.0000000000000","MEAN_MOTION":"15.06394386","CLASSIFICATION_TYPE":"U","NORAD_CAT_ID":"46028","SITE":"AFETR","ELEMENT_SET_NO":"999","PERIAPSIS":"546.161","MEAN_ELEMENT_THEORY":"SGP4","SEMIMAJOR_AXIS":"6925.366","RA_OF_ASC_NODE":"327.5316","OBJECT_NAME":"STARLINK-1523","ARG_OF_PERICENTER":"58.4678","RCS_SIZE":"LARGE","PERIOD":"95.592","REV_AT_EPOCH":"7250","TLE_LINE1":"1 46028U 20055B   21326.26958585  .00000864  00000-0  76895-4 0  9991","OBJECT_TYPE":"PAYLOAD","FILE":"3221278"},{"SEMIMAJOR_AXIS":"6925.363","RA_OF_ASC_NODE":"326.9781","CLASSIFICATION_TYPE":"U","NORAD_CAT_ID":"46029","SITE":"AFETR","PERIAPSIS":"546.105","ELEMENT_SET_NO":"999","MEAN_ELEMENT_THEORY":"SGP4","PERIOD":"95.592","TLE_LINE1":"1 46029U 20055C   21326.39491289 -.00000412  00000-0 -87767-5 0  9991","REV_AT_EPOCH":"7251","OBJECT_TYPE":"PAYLOAD","FILE":"3221278","OBJECT_NAME":"STARLINK-1526","ARG_OF_PERICENTER":"63.4402","RCS_SIZE":"LARGE","ECCENTRICITY":"0.00016220","MEAN_ANOMALY":"296.6753","REF_FRAME":"TEME","MEAN_MOTION_DOT":"-0.00000412","GP_ID":"190263416","COUNTRY_CODE":"US","EPHEMERIS_TYPE":"0","OBJECT_ID":"2020-055C","TIME_SYSTEM":"UTC","CENTER_NAME":"EARTH","EPOCH":"2021-11-22T09:28:40.473696","INCLINATION":"53.0559","APOAPSIS":"548.351","MEAN_MOTION_DDOT":"0.0000000000000","MEAN_MOTION":"15.06395261","TLE_LINE2":"2 46029  53.0559 326.9781 0001622  63.4402 296.6753 15.06395261 72517","DECAY_DATE":null,"LAUNCH_DATE":"2020-08-07","BSTAR":"-0.00000877670000"},{"TLE_LINE2":"2 46030  53.0544 327.4812 0001531  62.5854 297.5291 15.06394434 72455","LAUNCH_DATE":"2020-08-07","BSTAR":"-0.00001769900000","DECAY_DATE":null,"MEAN_MOTION_DDOT":"0.0000000000000","APOAPSIS":"548.291","MEAN_MOTION":"15.06394434","EPOCH":"2021-11-22T06:44:08.238624","INCLINATION":"53.0544","TIME_SYSTEM":"UTC","CENTER_NAME":"EARTH","EPHEMERIS_TYPE":"0","COUNTRY_CODE":"US","OBJECT_ID":"2020-055D","REF_FRAME":"TEME","MEAN_ANOMALY":"297.5291","MEAN_MOTION_DOT":"-0.00000545","GP_ID":"190261671","ECCENTRICITY":"0.00015310","ARG_OF_PERICENTER":"62.5854","OBJECT_NAME":"STARLINK-1534","RCS_SIZE":"LARGE","OBJECT_TYPE":"PAYLOAD","FILE":"3221278","PERIOD":"95.592","REV_AT_EPOCH":"7245","TLE_LINE1":"1 46030U 20055D   21326.28065091 -.00000545  00000-0 -17699-4 0  9992","SITE":"AFETR","MEAN_ELEMENT_THEORY":"SGP4","ELEMENT_SET_NO":"999","PERIAPSIS":"546.170","CLASSIFICATION_TYPE":"U","NORAD_CAT_ID":"46030","SEMIMAJOR_AXIS":"6925.366","RA_OF_ASC_NODE":"327.4812"},{"SEMIMAJOR_AXIS":"6925.326","RA_OF_ASC_NODE":"326.8695","CLASSIFICATION_TYPE":"U","NORAD_CAT_ID":"46031","SITE":"AFETR","MEAN_ELEMENT_THEORY":"SGP4","PERIAPSIS":"546.084","ELEMENT_SET_NO":"999","PERIOD":"95.592","TLE_LINE1":"1 46031U 20055E   21326.41702790  .00003186  00000-0  23266-3 0  9990","REV_AT_EPOCH":"7250","OBJECT_TYPE":"PAYLOAD","FILE":"3221278","ARG_OF_PERICENTER":"55.3304","OBJECT_NAME":"STARLINK-1544","RCS_SIZE":"LARGE","ECCENTRICITY":"0.00015980","REF_FRAME":"TEME","MEAN_ANOMALY":"304.7836","GP_ID":"190262422","MEAN_MOTION_DOT":"0.00003186","EPHEMERIS_TYPE":"0","COUNTRY_CODE":"US","OBJECT_ID":"2020-055E","TIME_SYSTEM":"UTC","CENTER_NAME":"EARTH","EPOCH":"2021-11-22T10:00:31.210560","INCLINATION":"53.0539","MEAN_MOTION_DDOT":"0.0000000000000","APOAPSIS":"548.298","MEAN_MOTION":"15.06407373","TLE_LINE2":"2 46031  53.0539 326.8695 0001598  55.3304 304.7836 15.06407373 72504","BSTAR":"0.00023266000000","LAUNCH_DATE":"2020-08-07","DECAY_DATE":null},{"SEMIMAJOR_AXIS":"6925.368","RA_OF_ASC_NODE":"326.7359","CLASSIFICATION_TYPE":"U","NORAD_CAT_ID":"46032","SITE":"AFETR","MEAN_ELEMENT_THEORY":"SGP4","PERIAPSIS":"546.149","ELEMENT_SET_NO":"999","PERIOD":"95.593","TLE_LINE1":"1 46032U 20055F   21326.44651363 -.00000559  00000-0 -18635-4 0  9991","REV_AT_EPOCH":"7252","OBJECT_TYPE":"PAYLOAD","FILE":"3221278","OBJECT_NAME":"STARLINK-1555","ARG_OF_PERICENTER":"64.8624","RCS_SIZE":"LARGE","ECCENTRICITY":"0.00015650","REF_FRAME":"TEME","MEAN_ANOMALY":"295.2527","GP_ID":"190262673","MEAN_MOTION_DOT":"-0.00000559","EPHEMERIS_TYPE":"0","COUNTRY_CODE":"US","OBJECT_ID":"2020-055F","TIME_SYSTEM":"UTC","CENTER_NAME":"EARTH","EPOCH":"2021-11-22T10:42:58.777632","INCLINATION":"53.0542","MEAN_MOTION_DDOT":"0.0000000000000","APOAPSIS":"548.317","MEAN_MOTION":"15.06393607","TLE_LINE2":"2 46032  53.0542 326.7359 0001565  64.8624 295.2527 15.06393607 72526","LAUNCH_DATE":"2020-08-07","BSTAR":"-0.00001863500000","DECAY_DATE":null}];
